{"type": "FeatureCollection", "features": [ {"type": "Feature", "properties": {"norad_id": 37216, "name": "COSMO-SKYMED 4", "group": "resource", "lat": -45.64812679580265, "lon": -15.083249002534183, "alt_km": 630.1366585409442, "timestamp": "2025-12-17T19:34:07.701558+00:00", "meta": {"OBJECT_NAME": "COSMO-SKYMED 4", "OBJECT_ID": "2010-060A", "EPOCH": "2025-12-17T07:12:35.834400", "MEAN_MOTION": 14.82150417, "ECCENTRICITY": 0.00013859, "INCLINATION": 97.8803, "RA_OF_ASC_NODE": 172.5545, "ARG_OF_PERICENTER": 79.7803, "MEAN_ANOMALY": 280.3567, "EPHEMERIS_TYPE": 0, "CLASSIFICATION_TYPE": "U", "NORAD_CAT_ID": 37216, "ELEMENT_SET_NO": 999, "REV_AT_EPOCH": 81762, "BSTAR": 5.1808175e-05, "MEAN_MOTION_DOT": 3.6e-06, "MEAN_MOTION_DDOT": 0}, "tle": {"line1": "1 37216U 10060A   25351.30041475  .00000360  00000+0  51808-4 0  9990", "line2": "2 37216  97.8803 172.5545 0001385  79.7803 280.3567 14.82150417817624"}}, "geometry": {"type": "Point", "coordinates": [-15.083249002534183, -45.64812679580265]}}, {"type": "Feature", "properties": {"norad_id": 37387, "name": "RESOURCESAT-2", "group": "resource", "lat": 13.162968903039127, "lon": -122.58264911842679, "alt_km": 824.3070005132022, "timestamp": "2025-12-17T19:34:07.701569+00:00", "meta": {"OBJECT_NAME": "RESOURCESAT-2", "OBJECT_ID": "2011-015A", "EPOCH": "2025-12-17T06:57:49.897440", "MEAN_MOTION": 14.21599107, "ECCENTRICITY": 0.00062258, "INCLINATION": 98.7873, "RA_OF_ASC_NODE": 54.8215, "ARG_OF_PERICENTER": 30.5288, "MEAN_ANOMALY": 329.6251, "EPHEMERIS_TYPE": 0, "CLASSIFICATION_TYPE": "U", "NORAD_CAT_ID": 37387, "ELEMENT_SET_NO": 999, "REV_AT_EPOCH": 76033, "BSTAR": 7.6113625e-05, "MEAN_MOTION_DOT": 1.22e-06, "MEAN_MOTION_DDOT": 0}, "tle": {"line1": "1 37387U 11015A   25351.29016085  .00000122  00000+0  76114-4 0  9990", "line2": "2 37387  98.7873  54.8215 0006225  30.5288 329.6251 14.21599107760334"}}, "geometry": {"type": "Point", "coordinates": [-122.58264911842679, 13.162968903039127]}}, {"type": "Feature", "properties": {"norad_id": 37781, "name": "HAIYANG-2A", "group": "resource", "lat": 25.279099489884175, "lon": 177.12837589457942, "alt_km": 966.873044547212, "timestamp": "2025-12-17T19:34:07.701580+00:00", "meta": {"OBJECT_NAME": "HAIYANG-2A", "OBJECT_ID": "2011-043A", "EPOCH": "2025-12-17T06:37:57.485856", "MEAN_MOTION": 13.78835166, "ECCENTRICITY": 0.00016492, "INCLINATION": 99.3377, "RA_OF_ASC_NODE": 352.1413, "ARG_OF_PERICENTER": 77.3777, "MEAN_ANOMALY": 282.7559, "EPHEMERIS_TYPE": 0, "CLASSIFICATION_TYPE": "U", "NORAD_CAT_ID": 37781, "ELEMENT_SET_NO": 999, "REV_AT_EPOCH": 72161, "BSTAR": -0.00013455698, "MEAN_MOTION_DOT": -1.81e-06, "MEAN_MOTION_DDOT": 0}, "tle": {"line1": "1 37781U 11043A   25351.27635979 -.00000181  00000+0 -13456-3 0  9992", "line2": "2 37781  99.3377 352.1413 0001649  77.3777 282.7559 13.78835166721616"}}, "geometry": {"type": "Point", "coordinates": [177.12837589457942, 25.279099489884175]}}, {"type": "Feature", "properties": {"norad_id": 37791, "name": "RASAT", "group": "resource", "lat": 79.91027818399843, "lon": -46.17541407181949, "alt_km": 649.7822368805955, "timestamp": "2025-12-17T19:34:07.701591+00:00", "meta": {"OBJECT_NAME": "RASAT", "OBJECT_ID": "2011-044D", "EPOCH": "2025-12-17T07:59:54.824352", "MEAN_MOTION": 14.679169, "ECCENTRICITY": 0.0021717, "INCLINATION": 98.0647, "RA_OF_ASC_NODE": 80.5227, "ARG_OF_PERICENTER": 51.0848, "MEAN_ANOMALY": 18.7037, "EPHEMERIS_TYPE": 0, "CLASSIFICATION_TYPE": "U", "NORAD_CAT_ID": 37791, "ELEMENT_SET_NO": 999, "REV_AT_EPOCH": 76650, "BSTAR": 0.00011710499, "MEAN_MOTION_DOT": 6.23e-06, "MEAN_MOTION_DDOT": 0}, "tle": {"line1": "1 37791U 11044D   25351.33327343  .00000623  00000+0  11710-3 0  9994", "line2": "2 37791  98.0647  80.5227 0021717  51.0848  18.7037 14.67916900766504"}}, "geometry": {"type": "Point", "coordinates": [-46.17541407181949, 79.91027818399843]}}, {"type": "Feature", "properties": {"norad_id": 37841, "name": "SRMSAT", "group": "resource", "lat": 0.5912761607607059, "lon": 78.8621799631559, "alt_km": 843.2829956107762, "timestamp": "2025-12-17T19:34:07.701601+00:00", "meta": {"OBJECT_NAME": "SRMSAT", "OBJECT_ID": "2011-058D", "EPOCH": "2025-12-17T07:53:39.939936", "MEAN_MOTION": 14.11513007, "ECCENTRICITY": 0.00118772, "INCLINATION": 19.9719, "RA_OF_ASC_NODE": 80.1756, "ARG_OF_PERICENTER": 3.9747, "MEAN_ANOMALY": 40.6878, "EPHEMERIS_TYPE": 0, "CLASSIFICATION_TYPE": "U", "NORAD_CAT_ID": 37841, "ELEMENT_SET_NO": 999, "REV_AT_EPOCH": 73209, "BSTAR": 7.6230775e-05, "MEAN_MOTION_DOT": 4.05e-06, "MEAN_MOTION_DDOT": 0}, "tle": {"line1": "1 37841U 11058D   25351.32893449  .00000405  00000+0  76231-4 0  9997", "line2": "2 37841  19.9719  80.1756 0011877   3.9747  40.6878 14.11513007732099"}}, "geometry": {"type": "Point", "coordinates": [78.8621799631559, 0.5912761607607059]}}, {"type": "Feature", "properties": {"norad_id": 38012, "name": "PLEIADES 1A", "group": "resource", "lat": 77.44636168857456, "lon": 24.25444669021485, "alt_km": 689.6988117835108, "timestamp": "2025-12-17T19:34:07.701612+00:00", "meta": {"OBJECT_NAME": "PLEIADES 1A", "OBJECT_ID": "2011-076F", "EPOCH": "2025-12-17T08:01:16.084416", "MEAN_MOTION": 14.58566164, "ECCENTRICITY": 0.00011908, "INCLINATION": 98.1822, "RA_OF_ASC_NODE": 64.0318, "ARG_OF_PERICENTER": 71.4105, "MEAN_ANOMALY": 4.0968, "EPHEMERIS_TYPE": 0, "CLASSIFICATION_TYPE": "U", "NORAD_CAT_ID": 38012, "ELEMENT_SET_NO": 999, "REV_AT_EPOCH": 74548, "BSTAR": 8.759955e-05, "MEAN_MOTION_DOT": 3.62e-06, "MEAN_MOTION_DDOT": 0}, "tle": {"line1": "1 38012U 11076F   25351.33421394  .00000362  00000+0  87600-4 0  9999", "line2": "2 38012  98.1822  64.0318 0001190  71.4105   4.0968 14.58566164745488"}}, "geometry": {"type": "Point", "coordinates": [24.25444669021485, 77.44636168857456]}}, {"type": "Feature", "properties": {"norad_id": 38038, "name": "ZIYUAN 1-02C (ZY 1-02C)", "group": "resource", "lat": -26.43530749717496, "lon": 61.965351201303136, "alt_km": 775.3340505239548, "timestamp": "2025-12-17T19:34:07.701622+00:00", "meta": {"OBJECT_NAME": "ZIYUAN 1-02C (ZY 1-02C)", "OBJECT_ID": "2011-079A", "EPOCH": "2025-12-17T08:19:23.257344", "MEAN_MOTION": 14.38017341, "ECCENTRICITY": 0.00073375, "INCLINATION": 98.4332, "RA_OF_ASC_NODE": 57.2756, "ARG_OF_PERICENTER": 126.344, "MEAN_ANOMALY": 302.738, "EPHEMERIS_TYPE": 0, "CLASSIFICATION_TYPE": "U", "NORAD_CAT_ID": 38038, "ELEMENT_SET_NO": 999, "REV_AT_EPOCH": 73307, "BSTAR": 0.00013753003, "MEAN_MOTION_DOT": 3.73e-06, "MEAN_MOTION_DDOT": 0}, "tle": {"line1": "1 38038U 11079A   25351.34679696  .00000373  00000+0  13753-3 0  9990", "line2": "2 38038  98.4332  57.2756 0007337 126.3440 302.7380 14.38017341733070"}}, "geometry": {"type": "Point", "coordinates": [61.965351201303136, -26.43530749717496]}}, {"type": "Feature", "properties": {"norad_id": 38338, "name": "ARIRANG-3 (KOMPSAT-3)", "group": "resource", "lat": 35.00044064614556, "lon": -59.447483134248266, "alt_km": 684.300578710734, "timestamp": "2025-12-17T19:34:07.701632+00:00", "meta": {"OBJECT_NAME": "ARIRANG-3 (KOMPSAT-3)", "OBJECT_ID": "2012-025B", "EPOCH": "2025-12-17T07:54:25.989408", "MEAN_MOTION": 14.61718968, "ECCENTRICITY": 0.00050603, "INCLINATION": 98.3328, "RA_OF_ASC_NODE": 305.9535, "ARG_OF_PERICENTER": 323.1721, "MEAN_ANOMALY": 36.9132, "EPHEMERIS_TYPE": 0, "CLASSIFICATION_TYPE": "U", "NORAD_CAT_ID": 38338, "ELEMENT_SET_NO": 999, "REV_AT_EPOCH": 72477, "BSTAR": 0.00010790412, "MEAN_MOTION_DOT": 4.89e-06, "MEAN_MOTION_DDOT": 0}, "tle": {"line1": "1 38338U 12025B   25351.32946747  .00000489  00000+0  10790-3 0  9993", "line2": "2 38338  98.3328 305.9535 0005060 323.1721  36.9132 14.61718968724772"}}, "geometry": {"type": "Point", "coordinates": [-59.447483134248266, 35.00044064614556]}}, {"type": "Feature", "properties": {"norad_id": 38709, "name": "EXACTVIEW-1 (ADS-1B)", "group": "resource", "lat": 77.99891812908305, "lon": 52.36692421765047, "alt_km": 803.1044028317338, "timestamp": "2025-12-17T19:34:07.701643+00:00", "meta": {"OBJECT_NAME": "EXACTVIEW-1 (ADS-1B)", "OBJECT_ID": "2012-039C", "EPOCH": "2025-12-17T07:23:20.282496", "MEAN_MOTION": 14.24909841, "ECCENTRICITY": 0.00104395, "INCLINATION": 98.9638, "RA_OF_ASC_NODE": 99.7937, "ARG_OF_PERICENTER": 340.7792, "MEAN_ANOMALY": 19.2991, "EPHEMERIS_TYPE": 0, "CLASSIFICATION_TYPE": "U", "NORAD_CAT_ID": 38709, "ELEMENT_SET_NO": 999, "REV_AT_EPOCH": 69680, "BSTAR": 6.9344599e-05, "MEAN_MOTION_DOT": 1.16e-06, "MEAN_MOTION_DDOT": 0}, "tle": {"line1": "1 38709U 12039C   25351.30787364  .00000116  00000+0  69345-4 0  9994", "line2": "2 38709  98.9638  99.7937 0010439 340.7792  19.2991 14.24909841696807"}}, "geometry": {"type": "Point", "coordinates": [52.36692421765047, 77.99891812908305]}}, {"type": "Feature", "properties": {"norad_id": 38755, "name": "SPOT 6", "group": "resource", "lat": 4.579178856516393, "lon": 55.84849637254579, "alt_km": 700.0662630995639, "timestamp": "2025-12-17T19:34:07.701653+00:00", "meta": {"OBJECT_NAME": "SPOT 6", "OBJECT_ID": "2012-047A", "EPOCH": "2025-12-17T01:26:14.839008", "MEAN_MOTION": 14.58607064, "ECCENTRICITY": 0.0001179, "INCLINATION": 98.1572, "RA_OF_ASC_NODE": 55.7652, "ARG_OF_PERICENTER": 98.8193, "MEAN_ANOMALY": 261.314, "EPHEMERIS_TYPE": 0, "CLASSIFICATION_TYPE": "U", "NORAD_CAT_ID": 38755, "ELEMENT_SET_NO": 999, "REV_AT_EPOCH": 70650, "BSTAR": 6.1315525e-05, "MEAN_MOTION_DOT": 2.4e-06, "MEAN_MOTION_DDOT": 0}, "tle": {"line1": "1 38755U 12047A   25351.05989397  .00000240  00000+0  61316-4 0  9994", "line2": "2 38755  98.1572  55.7652 0001179  98.8193 261.3140 14.58607064706504"}}, "geometry": {"type": "Point", "coordinates": [55.84849637254579, 4.579178856516393]}}]}